M2 PATHFINDER           
1 45727U 20037E   20296.56158220 -.00000374  00000-0 -32065-4 0  9991
2 45727  97.7053 113.7285 0011897 235.0849 124.9280 14.91237305 16965
